ONEWEB-0645             
1 55809U 23029P   25050.43986447  .00000091  00000+0  19470-3 0  9993
2 55809  87.9170  40.9415 0001995  95.4760 264.6601 13.19726329 95922
ONEWEB-0646             
1 55810U 23029Q   25050.46987600  .00000150  00000+0  34334-3 0  9992
2 55810  87.9168  40.9309 0002179  86.1581 273.9801 13.19727214 95914
ONEWEB-0648             
1 55811U 23029R   25050.44952564  .00000343  00000+0  89156-3 0  9998
2 55811  87.9032  25.6870 0002730  97.6434 262.5006 13.14502840 96682
ONEWEB-0649             
1 55812U 23029S   25050.50856867  .00000028  00000+0  38295-4 0  9994
2 55812  87.9167  40.9144 0002351  94.5917 265.5484 13.19726623 95951
ONEWEB-0650             
1 55813U 23029T   25050.20056652 -.00000026  00000+0 -97237-4 0  9997
2 55813  87.9167  40.9828 0002127  88.1437 271.9939 13.19725669 95885
ONEWEB-0652             
1 55814U 23029U   25050.20212979  .00000008  00000+0 -13651-4 0  9991
2 55814  87.9028  25.7466 0001730  81.4487 278.6839 13.14502008 96600
ONEWEB-0653             
1 55815U 23029V   25050.49074196 -.00000145  00000+0 -42601-3 0  9999
2 55815  87.9035  25.6754 0001670  88.2104 271.9216 13.14504562 96671
ONEWEB-0654             
1 55816U 23029W   25050.48598209 -.00000183  00000+0 -52791-3 0  9998
2 55816  87.9032  25.6798 0001394  80.5536 279.5751 13.14504468 96699
